#dP2020 10 14  0  0  0.00000000      97 __u+U IGS14 FIT  IAC
## 2127 259200.00000000   900.00000000 59136 0.0000000000000
+  122   C01C02C03C04C06C07C08C09C10C11C12C13C14C16C19C20C21
+        C22C23C24C25C26C27C28C29C30C32C33C34C35C36C37C38C39
+        C40C43C44C45C46C60E01E02E03E04E05E07E08E09E11E12E13
+        E14E15E18E19E21E24E25E26E27E30E31E33E36G01G02G03G04
+        G05G06G07G08G09G10G11G12G13G15G16G17G18G19G20G21G22
+        G23G24G25G26G27G28G29G30G31G32J01J02J03J07R01R02R03
+        R04R05R07R08R09R11R12R13R14R15R16R17R18R19R20R21R22
+        R23R24R26  0  0  0  0  0  0  0  0  0  0  0  0  0  0
++        13 13 13 14  8  8  8  8  8  8  7  7  7  8  7  7  7
++         7  7  7  7  7  7  7  7  7  7  8  8  7  7  7 12 10
++        10  9 12  8  8 13  4  4  4  4  4  4  4  4  4  4  4
++         4  4  4  4  4  4  4  4  4  4  4  4  4  3  3  3  3
++         3  3  3  3  3  3  3  3  3  3  3  3  3  3  3  3  3
++         3  3  3  3  3  3  3  6  3  3  9  9  9 13  6  5  5
++         5  5  5  5  5  5  5  6  5  5  6  5  5  6  6  5  6
++         5  5  8  0  0  0  0  0  0  0  0  0  0  0  0  0  0
%c M  cc GPS ccc cccc cccc cccc cccc ccccc ccccc ccccc ccccc
%c cc cc ccc ccc cccc cccc cccc cccc ccccc ccccc ccccc ccccc
%f  1.2500000  1.025000000  0.00000000000  0.000000000000000
%f  0.0000000  0.000000000  0.00000000000  0.000000000000000
%i    0    0    0    0      0      0      0      0         0
%i    0    0    0    0      0      0      0      0         0
/* INFORMATION & ANALYSIS CENTER (IAC)            FINAL DATA
/* S/V CLOCKS ARE ALIGNED TO GNSS TIME                      
/* G:C1WC2W R:C1PC2P E:C1XC5X C:C2IC6I J:C1CC2S             
/* PCV:IGS14_2118 OL/AL:FES2004  NONE     YN ORB:CoN CLK:CoN
*  2020 10 14 14 30  0.00000000
PC01 -34372.988488  24472.751725    529.977333   -670.476009
PC02   4456.267107  41891.527638   -867.035387    811.510313
PC03 -14734.949541  39477.578513  -1224.894145    801.577733
PC04 -39656.362466  14410.504910     14.510018   -170.646818
PC06 -20675.034234  36451.186479   1322.152639     47.842508
PC07  -8950.517427  29133.479164  29569.649320    -98.866996
PC08 -20955.410792  18813.455131 -31428.657361   -606.228144
PC09 -10698.579408  37333.111078  16169.461502    872.502933
PC10   4206.171498  36413.163257  21433.510819   -164.269926
PC11 -14832.514881  22652.514587  -6819.745834   -684.325782
PC12 -21871.845705  13563.060731  10872.813563    555.912336
PC13  -5033.874556  22772.428772 -35071.833390    695.251434
PC14  -4168.785768  22489.285032 -16007.367986    -29.654042
PC16 -18609.470945  37512.222204   3954.275657   -595.947826
PC19  -2945.946347 -26479.163271   8291.543230    581.543770
PC20   9839.805048 -15827.205249  20767.964365   -860.563797
PC21 -17284.320764  -4725.755306 -21380.377169   -696.814338
PC22 -14326.459144 -22021.951483  -9375.040411   -773.909346
PC23  19926.720049  14101.859699  13531.894054   -892.661561
PC24 -19327.753684   9023.821554  18009.255253   -721.093186
PC25   1439.926115  16509.200405  22450.961821   -790.944435
PC26 -27560.071161  -2367.331266   3825.660266    866.631871
PC27  20977.156731  -4693.007850 -17817.190262    415.550049
PC28   9646.591516  12804.142006 -22838.706745   -158.357215
PC29   6372.278508 -22984.982414  14476.914250    297.260327
PC30  19386.323146 -19895.796873  -2742.464259    389.565078
PC32  17347.360318   4644.926849  21367.055481   -904.667161
PC33   3027.435363  26466.247771  -8345.084806   -811.717464
PC34 -19191.159635  20130.993297   2167.086898   -832.300577
PC35  -9928.939406 -12715.317709  22771.168028   -608.059488
PC36   -773.771965 -16485.891347 -22469.765890   -877.729506
PC37  27498.118305   3515.348693  -3092.332090   -897.951669
PC38 -16290.151560  22250.664139 -31948.925164    106.118139
PC39 -14354.367860  39085.882424   6291.038739     23.811015
PC40    916.736807  34167.938352  24811.845672     90.812873
PC43  -6765.605506  23075.785439 -14149.121645   -416.282053
PC44 -20810.224509   5111.819636  17858.764278   -169.257102
PC45 -20042.081024 -13942.297149 -13521.331025 999999.999999
PC46  18659.259357  -9388.955355 -18471.641758    592.875307
PC60   7292.136098  41532.884473   -320.412437     -0.136446
PE01 -17696.869452 -21725.780544  -9530.891248   -961.243851
PE02  17754.961130  21708.796773   9459.140136    168.861745
PE03   7366.864886  24534.157339  14839.344540   -353.663117
PE04 -16308.179291  -6086.868474 -23942.102960   -626.960529
PE05  -6011.968810  28821.791391  -3085.662295   -337.932991
PE07  15769.050216 -16247.666129  19059.692635   -448.634870
PE08  16258.863806   5683.719036  24070.235649   6106.650554
PE09 -15524.161957  16502.212838 -19060.284686   5899.017363
PE11 -26263.041596  13313.845737  -3018.105374   6225.954117
PE12 -25135.449349   -461.943260  15623.006892   5557.012857
PE13  26326.798693 -13245.106337   2728.780404    404.514301
PE14  19617.923593   6216.018181 -24857.602626  -1190.044713
PE15  25189.691816    199.933922 -15531.313958    848.470111
PE18 -17025.595881   3754.806466  16689.450927  -1299.936633
PE19  -5884.238818 -25858.868189 -13150.626654    102.873189
PE21    -38.089397 -19121.863985 -22586.350052   -626.599565
PE24 -18521.057423   4876.705095  22572.424048   -528.933077
PE25   -133.996131  19055.568371  22664.482415   -518.246106
PE26  11455.985204 -18948.352148  19639.574319   2613.905100
PE27  18123.856197  -5341.595705 -22771.154237    113.809718
PE30  25474.497324  12043.551581  -9046.329712   3506.206098
PE31 -25542.442548 -11478.349718   9607.209843   -474.855453
PE33  -9252.235732 -13521.242368  24657.481432   -462.771942
PE36 -12009.089736  18896.398978 -19361.396004    494.579448
PG01   5338.834759  14135.297900 -22106.401183     32.823294
PG02  16147.398056 -14886.879531  15564.515051   -529.491449
PG03  11709.349439  22729.913209  -7462.835245   -326.059420
PG04   1966.138161  21928.155739  14832.852259   -145.183654
PG05   5816.260209 -15561.366394  20530.151551    -23.387572
PG06  25807.199748  -5824.242338   2617.400367   -333.105777
PG07  21338.054586   7413.397506  14674.369242   -393.266534
PG08  -5040.518724  25270.647218  -5813.535472    -51.418332
PG09  11275.701547  12043.303990  20751.348354   -300.018382
PG10 -19785.839311  -6093.319871 -16693.455611   -479.512431
PG11  -3631.894070  19802.646137 -17957.903344   -137.145918
PG12  -8529.855808 -23478.096752  -9476.333713     54.173950
PG13  13273.815748 -22902.501229   1080.404963     54.674927
PG15   1490.569248 -25515.777641  -6815.418920   -197.005549
PG16  -6038.343972  15628.324530  20269.970269   -222.321498
PG17  16925.755154  -7019.871505 -18783.630781    339.722318
PG18 -21953.840157  -6497.450971  13496.810006    306.826339
PG19  17881.338211 -12839.441668 -15094.640548    -91.889360
PG20 -21786.424966 -14144.474161  -6227.498900    526.401044
PG21 -12660.388242  15155.963846 -16879.099316     57.670028
PG22   6392.915422  21572.059135 -14036.320808   -743.372097
PG23 -20439.159615 -14474.595414  -8903.166554     85.461407
PG24  -2167.533288 -15728.229731 -21490.949069    -19.774540
PG25 -17396.741818 -20209.211827   1230.010513      5.271511
PG26 -15434.283380   5354.239785  20946.744483    295.150812
PG27 -12456.221455  22636.124793   5168.401637   -418.271269
PG28  18338.696714   6144.899772 -17549.202911    667.762041
PG29  -7891.149727 -15002.777938  20396.862351   -215.378369
PG30  26056.081624    926.523951   5687.338186   -319.795057
PG31 -25559.960942   6607.363443   4615.173472    -74.906743
PG32 -17003.632637   7474.412286 -18839.290125    357.501240
PJ01 -19902.415890  26735.683266 -21280.596923   -340.559657
PJ02 -26938.914353  20996.414817  29621.094034     -5.133301
PJ03 -33674.900402  25106.114240   8957.000286     -1.974048
PJ07 -25410.352498  33657.918977    -20.232204      0.081849
PR01   7207.276241 -14734.102652  19524.812861     69.040930
PR02  -2737.432097 -25359.272680   1351.548885    449.907340
PR03  -9786.646519 -18037.101105 -15152.581264     23.763661
PR04 -10980.900616   -576.636467 -22997.370867     57.959112
PR05  -6135.842235  17128.223364 -17863.569254     59.265305
PR07   9954.801943  17453.018650  15715.841030    -40.786000
PR08  11121.400268    530.294052  22995.100217    -55.169140
PR09   6703.396118  13534.491247  20597.430583      2.237597
PR11  22926.659963   3550.059465 -10637.742680    -41.094319
PR12  11714.412477  -6408.074836 -21696.055767    171.768888
PR13  -6500.472061 -13197.412991 -20845.875432    -45.208648
PR14 -21065.398691 -12309.455317  -7398.090846     56.582890
PR15 -23106.020652  -4233.041514   9969.751402    106.993342
PR16 -11054.068497   7158.703837  21854.404745     -7.240597
PR17  -9506.683239  -5845.082443  22950.547938    366.069905
PR18 -19816.598352   6988.710061  14444.946039     52.698890
PR19 -20274.236739  15443.950530  -1231.813904   -115.376710
PR20  -7498.187388  15681.058810 -18647.955708   -424.131024
PR21  10244.899612   5083.589037 -22795.292527   -158.987076
PR22  20271.619145  -7820.480845 -13446.472295    -77.536988
PR23  16570.006864 -17382.593258   8577.583941    338.321569
PR24   6455.179069 -15838.601487  18931.033768     16.836694
PR26 -11783.862649  17211.868527 -14696.159942   -363.217907
EOF
